State,Suburb,Postcode,HouseMedian$,UpdatedYr,UpdateMonth,,,VLOOKUP POSTCODE
NSW,Albion Park,2527,525000,2016,6,,,2527
NSW,Albion Park Rail,2527,525000,2016,6,,,2527
NSW,Badgerys Creek,2555,695000,2016,6,,,2555
NSW,Barrack Heights,2528,525000,2016,6,,,2528
NSW,Barrack Point,2528,525000,2016,6,,,2528
NSW,Belimbla Park,2281,680000,2016,6,,,2570
NSW,Belmont,2030,471000,2016,6,,,2280
NSW,Bickley Vale,2282,700000,2016,6,,,2570
NSW,Bilpin,2100,635000,2016,6,,,2758
NSW,Blackbutt,2316,525000,2016,6,,,2529
NSW,Blaxlands Ridge,2758,635000,2016,6,,,2758
NSW,Brownlow Hill,2570,680000,2016,6,,,2570
NSW,Camden,2570,700000,2016,6,,,2570
NSW,Camden Park,2570,680000,2016,6,,,2570
NSW,Camden South,2570,700000,2016,6,,,2570
NSW,Cardiff,2285,471000,2016,6,,,2285
NSW,Carlton,2218,880000,2016,6,,,2218
NSW,Catherine Hill Bay,2281,471000,2016,6,,,2281
NSW,Caves Beach,2281,471000,2016,6,,,2281
NSW,Cawdor,2570,680000,2016,6,,,2570
NSW,Charlestown,2290,471000,2016,6,,,2290
NSW,Clovelly,2031,1100000,2016,6,,,2031
NSW,Cobbitty,2570,700000,2016,6,,,2570
NSW,Couridjah,2571,680000,2016,6,,,2571
NSW,Croom,2527,525000,2016,6,,,2527
NSW,Dunmore,2529,525000,2016,6,,,2529
NSW,East Kurrajong,2758,635000,2016,6,,,2758
NSW,Elderslie,2570,700000,2016,6,,,2335
NSW,Ellis Lane,2570,700000,2016,6,,,2570
NSW,Fern Bay,2295,449000,2016,6,,,2295
NSW,Flinders,2529,525000,2016,6,,,2529
NSW,Glen Oak,2320,449000,2016,6,,,2320
NSW,Glendale,2285,471000,2016,6,,,2285
NSW,Glenmore,2570,680000,2016,6,,,2570
NSW,Grasmere,2570,700000,2016,6,,,2570
NSW,Hinton,2321,449000,2016,6,,,2321
NSW,Kingsgrove,2208,760000,2016,6,,,1480
NSW,Kirkham,2570,700000,2016,6,,,2570
NSW,Kurrajong,2758,635000,2016,6,,,2758
NSW,Kurrajong Heights,2758,635000,2016,6,,,2758
NSW,Kurrajong Hills,2758,635000,2016,6,,,2758
NSW,Lake Illawarra,2528,525000,2016,6,,,2528
NSW,Leets Vale,2775,1089000,2016,6,,,2775
NSW,Maldon,2571,680000,2016,6,,,2571
NSW,Mount Hunter,2570,680000,2016,6,,,2570
NSW,Mount Hutton,2290,471000,2016,6,,,2290
NSW,Mount Pritchard,2170,700000,2016,6,,,2170
NSW,Mount Warrigal,2528,525000,2016,6,,,2528
NSW,Mountain Lagoon,2758,635000,2016,6,,,2758
NSW,Mowbray Park,2571,680000,2016,6,,,2571
NSW,Mulbring,2323,316000,2016,6,,,2323
NSW,Nattai,2570,680000,2016,6,,,2570
NSW,North Macquarie,2527,525000,2016,6,,,2527
NSW,Oakdale,2570,680000,2016,6,,,2570
NSW,Oran Park,2570,700000,2016,6,,,2570
NSW,Orangeville,2570,680000,2016,6,,,2570
NSW,Picton,2571,680000,2016,6,,,2571
NSW,Prospect,2148,632000,2016,6,,,2148
NSW,Razorback,2571,680000,2016,6,,,2571
NSW,Redhead,2290,471000,2016,6,,,2290
NSW,Riverstone,2765,632000,2016,6,,,2765
NSW,Rose Bay,2029,1200000,2016,6,,,2029
NSW,Rouse Hill,2155,1089000,2016,6,,,2155
NSW,Shell Cove,2529,525000,2016,6,,,2529
NSW,Shellharbour,2529,525000,2016,6,,,2529
NSW,Shellharbour City Centre,2529,525000,2016,6,,,2529
NSW,Spring Farm,2570,700000,2016,6,,,2570
NSW,St Leonards,2065,1050000,2016,6,,,1590
NSW,St Marys,2760,589000,2016,6,,,1790
NSW,Swansea,2281,471000,2016,6,,,2281
NSW,The Devils Wilderness,2758,578000,2016,6,,,2758
NSW,The Oaks,2570,680000,2016,6,,,2570
NSW,Theresa Park,2570,680000,2016,6,,,2570
NSW,Tongarra,2527,525000,2016,6,,,2527
NSW,Toongabbie,2146,708000,2016,6,,,2146
NSW,Toronto,2283,471000,2016,6,,,2283
NSW,Tullimbar,2527,525000,2016,6,,,2527
NSW,Vaucluse,2030,1200000,2016,6,,,2030
NSW,Vineyard,2765,632000,2016,6,,,#N/A
NSW,Wallalong,2320,449000,2016,6,,,2320
NSW,Warilla,2528,525000,2016,6,,,2528
NSW,Warners Bay,2282,471000,2016,6,,,2282
NSW,Werombi,2570,680000,2016,6,,,2570
NSW,Wilton,2571,680000,2016,6,,,2571
NSW,Winston Hills,2153,720000,2016,6,,,2153
NSW,Wisemans Ferry,2775,635000,2016,6,,,2775
NSW,Yallah,2530,595000,2016,6,,,2530
NSW,Agnes Banks,2753,612000,2016,6,,,2753
NSW,Annandale,2038,1127000,2016,6,,,2038
NSW,Baulkham Hills,2153,904500,2016,6,,,1755
NSW,Berambing,2758,606500,2016,6,,,2758
NSW,Butterwick,2321,433000,2016,6,,,2321
NSW,Buxton,2571,629000,2016,6,,,2571
NSW,Calderwood,2527,560000,2016,6,,,2527
NSW,Camperdown,2050,957500,2016,6,,,1450
NSW,Cattai,2756,862000,2016,6,,,2756
NSW,Cecil Park,2178,697500,2016,6,,,2178
NSW,Central Mangrove,2250,540000,2016,6,,,2250
NSW,Chatswood West,2067,1253000,2016,6,,,2067
NSW,Chester Hill,2162,764000,2016,6,,,2162
NSW,Denham Court,2565,620000,2016,6,,,2565
NSW,Duns Creek,2321,433000,2016,6,,,2321
NSW,Holroyd,2142,714000,2016,6,,,2142
NSW,Ingleside,2101,1213000,2016,6,,,2101
NSW,Kemps Creek,2178,642000,2016,6,,,2178
NSW,Kulnura,2250,540000,2016,6,,,2250
NSW,Lane Cove North,2066,1160500,2016,6,,,2066
NSW,Leppington,2179,697500,2016,6,,,2179
NSW,Lidcombe,2141,714000,2016,6,,,2141
NSW,Lower Portland,2756,862000,2016,6,,,2756
NSW,Luddenham,2745,642000,2016,6,,,2745
NSW,Maraylya,2765,862000,2016,6,,,2765
NSW,Mays Hill,2145,714000,2016,6,,,2145
NSW,Narrabeen,2101,1213000,2016,6,,,2101
NSW,Narwee,2209,736500,2016,6,,,2209
NSW,Newtown,2042,957500,2016,6,,,2042
NSW,North Rocks,2151,904500,2016,6,,,2151
NSW,Oak Flats,2529,560000,2016,6,,,2529
NSW,Paddington,2021,1319500,2016,6,,,2021
NSW,Pendle Hill,2145,714000,2016,6,,,2145
NSW,Regents Park,2143,764000,2016,6,,,2143
NSW,Riverwood,2210,736500,2016,6,,,2210
NSW,Rosebery,2018,895500,2016,6,,,1445
NSW,Roseville,2069,1543000,2016,6,,,2069
NSW,Smithfield,2164,704000,2016,6,,,2164
NSW,Sydney Olympic Park,2127,714000,2016,6,,,#N/A
NSW,Villawood,2163,760000,2016,6,,,2163
NSW,Wallacia,2745,642000,2016,6,,,2745
NSW,Wentworthville,2145,714000,2016,6,,,2145
NSW,Westmead,2145,714000,2016,6,,,2145
NSW,Woodville,2321,433000,2016,6,,,2321
NSW,Yellow Rock,2527,560000,2016,6,,,2527
NSW,Yennora,2161,704000,2016,6,,,2161
NSW,Homebush West,2140,715000,2016,6,,,2140
NSW,Oatley,2223,773000,2016,6,,,2223
NSW,Abbotsbury,2176,700000,2016,6,,,2176
NSW,Abbotsford,2046,1006000,2016,6,,,2046
NSW,Aberdare,2325,316000,2016,6,,,2325
NSW,Aberglasslyn,2320,417000,2016,6,,,2320
NSW,Abermain,2326,316000,2016,6,,,2326
NSW,Acacia Gardens,2763,632000,2016,6,,,2763
NSW,Adamstown,2289,491000,2016,6,,,2289
NSW,Adamstown Heights,2289,491000,2016,6,,,2289
NSW,Airds,2560,545000,2016,6,,,2560
NSW,Akuna Bay,2084,1391000,2016,6,,,#N/A
NSW,Alexandria,2015,930000,2016,6,,,1435
NSW,Alfords Point,2234,900000,2016,6,,,2234
NSW,Alison,2259,480000,2016,6,,,2259
NSW,Allambie Heights,2100,1035000,2016,6,,,2100
NSW,Allandale,2320,417000,2016,6,,,2320
NSW,Allawah,2218,880000,2016,6,,,2218
NSW,Ambarvale,2560,545000,2016,6,,,2560
NSW,Anambah,2320,417000,2016,6,,,2320
NSW,Anna Bay,2316,449000,2016,6,,,2316
NSW,Annangrove,2156,1089000,2016,6,,,2156
NSW,Appin,2560,680000,2016,6,,,2560
NSW,Arcadia Vale,2283,491000,2016,6,,,2283
NSW,Argenton,2284,491000,2016,6,,,2284
NSW,Arncliffe,2205,760000,2016,6,,,2205
NSW,Arndell Park,2148,632000,2016,6,,,2148
NSW,Artarman Industrial Area,#N/A,1486000,2016,6,,,#N/A
NSW,Artarmon,2064,1486000,2016,6,,,1570
NSW,Ashbury,2193,700000,2016,6,,,2193
NSW,Ashcroft,2168,695000,2016,6,,,2168
NSW,Ashfield,2131,825000,2016,6,,,1800
NSW,Ashtonfield,2323,417000,2016,6,,,2323
NSW,Auburn,2144,708000,2016,6,,,1835
NSW,Austinmer,2515,595000,2016,6,,,2515
NSW,Austral,2179,695000,2016,6,,,2179
NSW,Avalon Beach,2107,1391000,2016,6,,,2107
NSW,Avalon North,#N/A,1391000,2016,6,,,#N/A
NSW,Avoca Beach,2251,600000,2016,6,,,2251
NSW,Avondale,2530,595000,2016,6,,,2530
NSW,Awaba,2283,491000,2016,6,,,2283
NSW,Balgowlah,2093,1673000,2016,6,,,2093
NSW,Balgowlah Heights,2093,1673000,2016,6,,,2093
NSW,Balgownie,2519,595000,2016,6,,,2519
NSW,Balickera,2324,449000,2016,6,,,2324
NSW,Balmain,2041,1324000,2016,6,,,2041
NSW,Balmain East,2041,1324000,2016,6,,,2041
NSW,Balmoral,2283,491000,2016,6,,,2283
NSW,Balmoral,2571,578000,2016,6,,,2283
NSW,Bangor,1836,900000,2016,6,,,2234
NSW,Banksia,2216,760000,2016,6,,,2216
NSW,Banksmeadow,2019,861000,2016,6,,,2019
NSW,Bankstown,1795,820000,2016,6,,,1885
NSW,Bankstown Aerodrome,2200,820000,2016,6,,,2200
NSW,Bar Beach,2300,491000,2016,6,,,2300
NSW,Bar Point,2083,600000,2016,6,,,2083
NSW,Barangaroo,2000,930000,2016,6,,,#N/A
NSW,Barden Ridge,2234,900000,2016,6,,,2234
NSW,Bardwell Park,2207,760000,2016,6,,,2207
NSW,Bardwell Valley,2207,760000,2016,6,,,2207
NSW,Bargo,2574,680000,2016,6,,,2574
NSW,Bargo River,2573,680000,2016,6,,,#N/A
NSW,Barren Grounds,2577,688000,2016,6,,,2577
NSW,Barrenjoey,#N/A,1391000,2016,6,,,#N/A
NSW,Bass Hill,2197,820000,2016,6,,,2197
NSW,Bateau Bay,2261,480000,2016,6,,,2261
NSW,Bayview,2104,1391000,2016,6,,,2104
NSW,Beacon Hill,2100,1035000,2016,6,,,2100
NSW,Beaconsfield,2015,930000,2016,6,,,2015
NSW,Beaumont Hills,2155,1089000,2016,6,,,2155
NSW,Beecroft,2119,720000,2016,6,,,2119
NSW,Belfield,2191,700000,2016,6,,,2191
NSW,Bell,2786,578000,2016,6,,,2786
NSW,Bella Vista,2153,1089000,2016,6,,,2153
NSW,Bellambi,2518,595000,2016,6,,,2518
NSW,Bellbird,2325,316000,2016,6,,,2325
NSW,Bellevue Hill,2023,1709000,2016,6,,,2023
NSW,Belmont North,2280,491000,2016,6,,,2280
NSW,Belmont South,2280,491000,2016,6,,,2280
NSW,Belmore,2192,700000,2016,6,,,2192
NSW,Belrose,2085,1035000,2016,6,,,2085
NSW,Bennetts Green,2290,491000,2016,6,,,2290
NSW,Bensville,2251,600000,2016,6,,,2251
NSW,Berala,2141,708000,2016,6,,,2141
NSW,Berkeley,2506,595000,2016,6,,,2506
NSW,Berkeley Vale,2261,480000,2016,6,,,2261
NSW,Berkshire Park,2765,589000,2016,6,,,2765
NSW,Berry Park,2321,417000,2016,6,,,2321
NSW,Beverley Park,2217,880000,2016,6,,,2217
NSW,Beverly Hills,2209,773000,2016,6,,,2209
NSW,Bexley,2207,760000,2016,6,,,2207
NSW,Bexley North,2207,760000,2016,6,,,2207
NSW,Bidwill,2770,632000,2016,6,,,2770
NSW,Bilgola Beach,2107,1391000,2016,6,,,#N/A
NSW,Bilgola Plateau,2107,1391000,2016,6,,,#N/A
NSW,Birchgrove,2041,1324000,2016,6,,,2041
NSW,Birmingham Gardens,2287,491000,2016,6,,,2287
NSW,Birrong,2143,820000,2016,6,,,2143
NSW,Black Springs,2787,578000,2016,6,,,2787
NSW,Blackalls Park,2283,491000,2016,6,,,2283
NSW,Blackett,2770,632000,2016,6,,,2770
NSW,Blackheath,2785,578000,2016,6,,,2785
NSW,Blacksmiths,2281,491000,2016,6,,,2281
NSW,Blacksmiths Beach,#N/A,471000,2016,6,,,#N/A
NSW,Blacktown,1821,632000,2016,6,,,2148
NSW,Blackwall,2256,600000,2016,6,,,2256
NSW,Blair Athol,2560,545000,2016,6,,,2560
NSW,Blairmount,2559,545000,2016,6,,,2559
NSW,Blakehurst,2221,880000,2016,6,,,2221
NSW,Bligh Park,2756,635000,2016,6,,,2756
NSW,Blue Bay,2261,480000,2016,6,,,2261
NSW,Blue Haven,2262,480000,2016,6,,,2262
NSW,Boat Harbour,2316,449000,2016,6,,,2316
NSW,Bobs Farm,2316,449000,2016,6,,,2316
NSW,Bolton Point,2283,491000,2016,6,,,2283
NSW,Bolwarra,2320,417000,2016,6,,,2320
NSW,Bolwarra Heights,2320,417000,2016,6,,,2320
NSW,Bombo,2533,688000,2016,6,,,2533
NSW,Bondi,2026,1200000,2016,6,,,2026
NSW,Bondi Beach,2026,1200000,2016,6,,,2026
NSW,Bondi Junction,2022,1200000,2016,6,,,1355
NSW,Bondi North,2026,1200000,2016,6,,,#N/A
NSW,Bonnet Bay,2226,900000,2016,6,,,2226
NSW,Bonnyrigg,2177,700000,2016,6,,,2177
NSW,Bonnyrigg Heights,2177,700000,2016,6,,,2177
NSW,Booker Bay,2257,600000,2016,6,,,2257
NSW,Boolaroo,2284,491000,2016,6,,,2284
NSW,Booragul,2284,491000,2016,6,,,2284
NSW,Bossley Park,2176,700000,2016,6,,,2176
NSW,Botany,2019,861000,2016,6,,,1455
NSW,Botany Bay,#N/A,861000,2016,6,,,#N/A
NSW,Bouddi,2251,600000,2016,6,,,2251
NSW,Bow Bowing,2566,545000,2016,6,,,2566
NSW,Bowen Mountain,2753,635000,2016,6,,,2753
NSW,Box Head,2257,600000,2016,6,,,2257
NSW,Box Hill,2765,1089000,2016,6,,,2765
NSW,Bradbury,2560,545000,2016,6,,,2560
NSW,Brandy Hill,2324,449000,2016,6,,,2324
NSW,Branxton,2335,316000,2016,6,,,2335
NSW,Breakfast Point,2137,1006000,2016,6,,,2137
NSW,Brighton-Le-Sands,2216,760000,2016,6,,,2216
NSW,Bringelly,2556,695000,2016,6,,,2556
NSW,Broadmeadow,2292,491000,2016,6,,,2292
NSW,Brogers Creek,2535,688000,2016,6,,,2535
NSW,Bronte,2024,1200000,2016,6,,,2024
NSW,Brookvale,2100,1035000,2016,6,,,2100
NSW,Broughton Village,2535,688000,2016,6,,,2535
NSW,Brownsville,2530,595000,2016,6,,,2530
NSW,Brunkerville,2323,417000,2016,6,,,2323
NSW,Buchanan,2323,417000,2016,6,,,2323
NSW,Bucketty,2250,635000,2016,6,,,2250
NSW,Budderoo,2535,688000,2016,6,,,2535
NSW,Budgewoi,2262,480000,2016,6,,,2262
NSW,Budgewoi Peninsula,2262,480000,2016,6,,,2262
NSW,Buff Point,2262,480000,2016,6,,,2262
NSW,Bulli,2516,595000,2016,6,,,2516
NSW,Bundeena,2230,900000,2016,6,,,2230
NSW,Bungan Beach,#N/A,1391000,2016,6,,,#N/A
NSW,Bungan Head,#N/A,1391000,2016,6,,,#N/A
NSW,Bungarribee,2767,632000,2016,6,,,#N/A
NSW,Burraneer,2230,900000,2016,6,,,2230
NSW,Burwood,1814,878000,2016,6,,,1805
NSW,Burwood Heights,2136,878000,2016,6,,,2136
NSW,Busby,2168,695000,2016,6,,,2168
NSW,Buttaba,2283,491000,2016,6,,,2283
NSW,Buttai,2323,417000,2016,6,,,2323
NSW,Cabarita,2137,1006000,2016,6,,,2137
NSW,Cabramatta,2166,700000,2016,6,,,2166
NSW,Cabramatta West,2166,700000,2016,6,,,2166
NSW,Caddens,2747,589000,2016,6,,,#N/A
NSW,Calga,2250,600000,2016,6,,,2250
NSW,Callaghan,2308,491000,2016,6,,,2308
NSW,Cambridge Gardens,2747,589000,2016,6,,,2747
NSW,Cambridge Park,2747,589000,2016,6,,,2747
NSW,Camellia,2142,720000,2016,6,,,2142
NSW,Cameron Park,2285,491000,2016,6,,,2285
NSW,Cammeray,2062,1050000,2016,6,,,2062
NSW,Campbelltown,2560,545000,2016,6,,,2560
NSW,Campsie,2194,700000,2016,6,,,2194
NSW,Campvale,2318,449000,2016,6,,,2318
NSW,Cams Wharf,2281,491000,2016,6,,,2281
NSW,Canada Bay,2046,1006000,2016,6,,,2046
NSW,Canley Heights,2166,700000,2016,6,,,2166
NSW,Canley Vale,2166,700000,2016,6,,,2166
NSW,Canterbury,2193,700000,2016,6,,,2193
NSW,Canton Beach,2263,480000,2016,6,,,2263
NSW,Cardiff Heights,2285,491000,2016,6,,,2285
NSW,Cardiff South,2285,491000,2016,6,,,2285
NSW,Careel Bay,2107,1391000,2016,6,,,2107
NSW,Careel Head,#N/A,1391000,2016,6,,,#N/A
NSW,Carey Bay,2283,491000,2016,6,,,2283
NSW,Caringbah,2229,900000,2016,6,,,1495
NSW,Caringbah South,2229,900000,2016,6,,,#N/A
NSW,Carlingford,2118,720000,2016,6,,,2118
NSW,Carnes Hill,2171,695000,2016,6,,,#N/A
NSW,Carramar,2163,700000,2016,6,,,2163
NSW,Carrington,2294,491000,2016,6,,,2294
NSW,Carrington Falls,2577,688000,2016,6,,,2577
NSW,Carss Park,2221,880000,2016,6,,,2221
NSW,Cartwright,2168,695000,2016,6,,,2168
NSW,Castle Cove,1858,1486000,2016,6,,,2069
NSW,Castle Hill,2154,1089000,2016,6,,,1765
NSW,Castlecrag,2068,1486000,2016,6,,,2068
NSW,Castlereagh,2749,589000,2016,6,,,2749
NSW,Casula,2170,695000,2016,6,,,2170
NSW,Cataract Dam,2560,680000,2016,6,,,#N/A
NSW,Catherine Field,2557,700000,2016,6,,,2557
NSW,Cecil Hills,2171,695000,2016,6,,,2171
NSW,Cedar Brush,2259,480000,2016,6,,,#N/A
NSW,Centennial Park,2021,1100000,2016,6,,,#N/A
NSW,Central Colo,2756,635000,2016,6,,,2756
NSW,Central Macdonald,2775,635000,2016,6,,,2775
NSW,Chain Valley Bay,2259,480000,2016,6,,,2259
NSW,Charmhaven,2263,480000,2016,6,,,2263
NSW,Chatham Valley,2787,578000,2016,6,,,2787
NSW,Chatswood,1876,1486000,2016,6,,,2057
NSW,Cheero Point,2083,600000,2016,6,,,2083
NSW,Chifley,2036,1100000,2016,6,,,2036
NSW,Chippendale,2008,930000,2016,6,,,2008
NSW,Chipping Norton,2170,695000,2016,6,,,2170
NSW,Chiswick,2046,1006000,2016,6,,,2046
NSW,Chittaway Bay,2261,480000,2016,6,,,2261
NSW,Chittaway Point,2261,480000,2016,6,,,2261
NSW,Chullora,2190,820000,2016,6,,,2190
NSW,Church Point,2105,1391000,2016,6,,,2105
NSW,Claremont Meadows,2747,589000,2016,6,,,2747
NSW,Clarence Town,2321,417000,2016,6,,,2321
NSW,Clarendon,2756,635000,2016,6,,,2756
NSW,Clareville,2107,1391000,2016,6,,,2107
NSW,Clareville Beach,#N/A,1391000,2016,6,,,#N/A
NSW,Claymore,2559,545000,2016,6,,,2559
NSW,Clemton Park,2206,700000,2016,6,,,2206
NSW,Cleveland,2530,595000,2016,6,,,2530
NSW,Cliftleigh,2321,417000,2016,6,,,2321
NSW,Clifton,2515,595000,2016,6,,,2515
NSW,Clontarf,2093,1673000,2016,6,,,2093
NSW,Clyde,2142,720000,2016,6,,,2142
NSW,Coal Point,2283,491000,2016,6,,,2283
NSW,Coalcliff,2508,595000,2016,6,,,2508
NSW,Coasters Retreat,2108,1391000,2016,6,,,2108
NSW,Cockatoo Island,#N/A,1324000,2016,6,,,#N/A
NSW,Cogra Bay,2083,600000,2016,6,,,2083
NSW,Colebee,2761,632000,2016,6,,,2761
NSW,Coledale,2515,595000,2016,6,,,2515
NSW,Collaroy,2097,1035000,2016,6,,,2097
NSW,Collaroy Plateau,2097,1035000,2016,6,,,#N/A
NSW,Colo,2756,635000,2016,6,,,2756
NSW,Colo Heights,2756,635000,2016,6,,,2756
NSW,Colongra,2262,480000,2016,6,,,2262
NSW,Colyton,2760,589000,2016,6,,,2760
NSW,Como,2226,900000,2016,6,,,2226
NSW,Concord,2137,1006000,2016,6,,,2137
NSW,Concord West,2138,1006000,2016,6,,,2138
NSW,Condell Park,2200,820000,2016,6,,,2200
NSW,Coniston,2500,595000,2016,6,,,2500
NSW,Connells Point,2221,880000,2016,6,,,2221
NSW,Constitution Hill,2145,720000,2016,6,,,#N/A
NSW,Coogee,2034,1100000,2016,6,,,2034
NSW,Cooks Hill,2300,491000,2016,6,,,2300
NSW,Cooranbong,2265,471000,2016,6,,,2265
NSW,Copacabana,2251,600000,2016,6,,,2251
NSW,Cordeaux,2526,595000,2016,6,,,2526
NSW,Cordeaux Heights,2526,595000,2016,6,,,2526
NSW,Corlette,2315,449000,2016,6,,,2315
NSW,Cornwallis,2756,635000,2016,6,,,2756
NSW,Corrimal,2518,595000,2016,6,,,2518
NSW,Corrimal East,2518,595000,2016,6,,,2518
NSW,Cottage Point,2084,1035000,2016,6,,,2084
NSW,Cranebrook,2749,589000,2016,6,,,2749
NSW,Cremorne,2090,1050000,2016,6,,,2090
NSW,Cremorne Point,2090,1050000,2016,6,,,2090
NSW,Cringila,2502,595000,2016,6,,,2502
NSW,Cromer,2099,1035000,2016,6,,,2099
NSW,Cronulla,2230,900000,2016,6,,,2230
NSW,Croudace Bay,2280,491000,2016,6,,,2280
NSW,Crows Nest,2065,1050000,2016,6,,,1582
NSW,Croydon Park,2133,700000,2016,6,,,2133
NSW,Cumberland Reach,2756,635000,2016,6,,,2756
NSW,Curl Curl,2096,1035000,2016,6,,,2096
NSW,Curramore,2533,688000,2016,6,,,2533
NSW,Currans Hill,2567,700000,2016,6,,,2567
NSW,Currawong Beach,2108,1391000,2016,6,,,2108
NSW,Daceyville,2032,861000,2016,6,,,2032
NSW,Daleys Point,2257,600000,2016,6,,,2257
NSW,Dangar,2309,491000,2016,6,,,2309
NSW,Dapto,2530,595000,2016,6,,,2530
NSW,Dargan,2786,578000,2016,6,,,2786
NSW,Darkes Forest,2508,595000,2016,6,,,2508
NSW,Darling Point,2027,1709000,2016,6,,,2027
NSW,Darlinghurst,2010,930000,2016,6,,,1300
NSW,Darlington,2008,930000,2016,6,,,2008
NSW,Davidson,2085,1035000,2016,6,,,2085
NSW,Davistown,2251,600000,2016,6,,,2251
NSW,Dawes Point,2000,930000,2016,6,,,2000
NSW,Dean Park,2761,632000,2016,6,,,2761
NSW,Dee Why,2099,1035000,2016,6,,,2099
NSW,Denistone,2114,1020000,2016,6,,,2114
NSW,Denistone East,2112,1020000,2016,6,,,2112
NSW,Denistone West,2114,1020000,2016,6,,,2114
NSW,Dharruk,2770,632000,2016,6,,,2770
NSW,Dobroyd Point,#N/A,825000,2016,6,,,#N/A
NSW,Dolans Bay,2229,900000,2016,6,,,2229
NSW,Dolls Point,2219,760000,2016,6,,,2219
NSW,Dombarton,2526,595000,2016,6,,,2526
NSW,Doonside,2767,632000,2016,6,,,2767
NSW,Dooralong,2259,480000,2016,6,,,2259
NSW,Double Bay,2028,1709000,2016,6,,,1360
NSW,Douglas Park,2569,680000,2016,6,,,2569
NSW,Dover Heights,2030,1200000,2016,6,,,2030
NSW,Doyalson,2262,480000,2016,6,,,2262
NSW,Drummoyne,2047,1006000,2016,6,,,1470
NSW,Duckenfield,2321,417000,2016,6,,,2321
NSW,Duckmaloi,2787,578000,2016,6,,,2787
NSW,Dudley,2290,491000,2016,6,,,2290
NSW,Duffys Forest,2084,1035000,2016,6,,,2084
NSW,Dulwich Hill,2203,985000,2016,6,,,2203
NSW,Dundas,2117,720000,2016,6,,,2117
NSW,Dundas Valley,2117,720000,2016,6,,,2117
NSW,Dural,2158,1089000,2016,6,,,2158
NSW,Eagle Vale,2558,545000,2016,6,,,2558
NSW,Eagleton,2324,449000,2016,6,,,2324
NSW,Earlwood,2206,700000,2016,6,,,2206
NSW,East Corrimal,2518,595000,2016,6,,,2518
NSW,East Gordon,#N/A,1600000,2016,6,,,#N/A
NSW,East Gosford,2250,600000,2016,6,,,2250
NSW,East Hills,2213,820000,2016,6,,,2213
NSW,East Killara,2071,1600000,2016,6,,,2071
NSW,East Lindfield,2070,1600000,2016,6,,,2070
NSW,East Maitland,2323,417000,2016,6,,,2323
NSW,East Roseville,2069,1600000,2016,6,,,#N/A
NSW,East Ryde,2113,1020000,2016,6,,,2113
NSW,East Seaham,2324,449000,2016,6,,,2324
NSW,East Willoughby,2068,1486000,2016,6,,,#N/A
NSW,Eastern Creek,2766,632000,2016,6,,,2766
NSW,Eastgardens,2036,861000,2016,6,,,2036
NSW,Eastlakes,2018,861000,2016,6,,,2018
NSW,Eastwood,2122,720000,2016,6,,,2122
NSW,Ebenezer,2756,635000,2016,6,,,2756
NSW,Edensor Park,2176,700000,2016,6,,,2176
NSW,Edgecliff,2027,1709000,2016,6,,,2027
NSW,Edgeworth,2285,491000,2016,6,,,2285
NSW,Edith,2787,578000,2016,6,,,2787
NSW,Edmondson Park,2174,695000,2016,6,,,#N/A
NSW,Elanora Heights,2101,1391000,2016,6,,,2101
NSW,Eleebana,2282,491000,2016,6,,,2282
NSW,Elermore Vale,2287,491000,2016,6,,,2287
NSW,Elizabeth Bay,2011,930000,2016,6,,,2011
NSW,Ellalong,2325,316000,2016,6,,,2325
NSW,Elvina Bay,2105,1391000,2016,6,,,2105
NSW,Emerton,2770,632000,2016,6,,,2770
NSW,Empire Bay,2257,600000,2016,6,,,2257
NSW,Emu Heights,2750,589000,2016,6,,,2750
NSW,Emu Plains,2750,589000,2016,6,,,2750
NSW,Enfield,2136,878000,2016,6,,,2136
NSW,Enfield South,2133,878000,2016,6,,,2133
NSW,Engadine,2233,900000,2016,6,,,2233
NSW,Englorie Park,2560,545000,2016,6,,,2560
NSW,Enmore,2042,985000,2016,6,,,2042
NSW,Epping,2121,720000,2016,6,,,1710
NSW,Erina,2250,600000,2016,6,,,2250
NSW,Erina Heights,2260,600000,2016,6,,,2260
NSW,Ermington,2115,720000,2016,6,,,1700
NSW,Erskine Park,2759,589000,2016,6,,,2759
NSW,Erskineville,2043,930000,2016,6,,,2043
NSW,Eschol Park,2558,545000,2016,6,,,2558
NSW,Ettalong Beach,2257,600000,2016,6,,,2257
NSW,Eveleigh,2015,930000,2016,6,,,1430
NSW,Fairfield,1807,708000,2016,6,,,1860
NSW,Fairfield,2165,700000,2016,6,,,1860
NSW,Fairfield East,2165,700000,2016,6,,,2165
NSW,Fairfield Heights,2165,700000,2016,6,,,2165
NSW,Fairfield West,2165,700000,2016,6,,,2165
NSW,Fairlight,2094,1673000,2016,6,,,2094
NSW,Fairy Meadow,2519,595000,2016,6,,,2519
NSW,Farley,2320,417000,2016,6,,,2320
NSW,Farmborough Heights,2526,595000,2016,6,,,2526
NSW,Fassifern,2283,491000,2016,6,,,2283
NSW,Fennell Bay,2283,491000,2016,6,,,2283
NSW,Fernances,2775,635000,2016,6,,,2775
NSW,Fernhill,2519,595000,2016,6,,,2519
NSW,Ferodale,2318,449000,2016,6,,,2318
NSW,Figtree,2525,595000,2016,6,,,2525
NSW,Fingal Bay,2315,449000,2016,6,,,2315
NSW,Fishermans Bay,2316,449000,2016,6,,,2316
NSW,Fishing Point,2283,491000,2016,6,,,2283
NSW,Five Dock,2046,1006000,2016,6,,,2046
NSW,Flemington,2140,715000,2016,6,,,3031
NSW,Fletcher,2287,491000,2016,6,,,2287
NSW,Floraville,2280,491000,2016,6,,,2280
NSW,Foleys Hill,#N/A,1391000,2016,6,,,#N/A
NSW,Forest Lodge,2037,930000,2016,6,,,2037
NSW,Forestville,1856,1035000,2016,6,,,2087
NSW,Forresters Beach,2260,600000,2016,6,,,2260
NSW,Fountaindale,2258,480000,2016,6,,,2258
NSW,Fox Valley,#N/A,1600000,2016,6,,,#N/A
NSW,Foxground,2534,688000,2016,6,,,2534
NSW,Freemans Reach,2756,635000,2016,6,,,2756
NSW,Freemans Waterhole,2323,417000,2016,6,,,2323
NSW,Frenchs Forest,2086,1035000,2016,6,,,1639
NSW,Freshwater,2096,1035000,2016,6,,,#N/A
NSW,Fullerton Cove,2318,449000,2016,6,,,2318
NSW,Galston,2159,1089000,2016,6,,,2159
NSW,Garden Suburb,2289,491000,2016,6,,,2289
NSW,Gateshead,2290,491000,2016,6,,,2290
NSW,Georges Hall,1924,820000,2016,6,,,2198
NSW,Georges Hall,2198,700000,2016,6,,,2198
NSW,Georgetown,2298,491000,2016,6,,,2298
NSW,Gerringong,2534,688000,2016,6,,,2534
NSW,Gerroa,2534,688000,2016,6,,,2534
NSW,Gilead,2560,545000,2016,6,,,2560
NSW,Gillieston Heights,2321,417000,2016,6,,,2321
NSW,Gingkin,2787,578000,2016,6,,,2787
NSW,Girraween,2145,708000,2016,6,,,2145
NSW,Gladesville,2111,1780000,2016,6,,,1675
NSW,Glebe,2037,930000,2016,6,,,2037
NSW,Gledswood Hills,2557,700000,2016,6,,,#N/A
NSW,Glen Alpine,2560,545000,2016,6,,,2560
NSW,Glen Martin,2321,417000,2016,6,,,2321
NSW,Glen William,2321,417000,2016,6,,,2321
NSW,Glendenning,2761,632000,2016,6,,,2761
NSW,Glenfield,2167,545000,2016,6,,,2167
NSW,Glenhaven,2156,1089000,2016,6,,,2156
NSW,Glenmore Park,2745,589000,2016,6,,,2745
NSW,Glenning Valley,2261,480000,2016,6,,,2261
NSW,Glenorie,2157,1089000,2016,6,,,2157
NSW,Glenwood,2768,632000,2016,6,,,2768
NSW,Glenworth Valley,2250,600000,2016,6,,,2250
NSW,Glossodia,2756,635000,2016,6,,,2756
NSW,Gordon,2072,1600000,2016,6,,,2072
NSW,Gore Hill,2065,1486000,2016,6,,,#N/A
NSW,Gorokan,2263,480000,2016,6,,,2263
NSW,Gosford,2250,600000,2016,6,,,2250
NSW,Gosforth,2320,417000,2016,6,,,2320
NSW,Granville,1855,708000,2016,6,,,1830
NSW,Granville,2142,720000,2016,6,,,1830
NSW,Grays Point,2232,900000,2016,6,,,2232
NSW,Great Mackerel Beach,2108,1391000,2016,6,,,2108
NSW,Green Hills,2323,417000,2016,6,,,2323
NSW,Green Point,2251,600000,2016,6,,,2251
NSW,Green Valley,2168,695000,2016,6,,,2168
NSW,Greenacre,2190,820000,2016,6,,,2190
NSW,Greendale,2745,695000,2016,6,,,2550
NSW,Greenfield Park,2176,700000,2016,6,,,2176
NSW,Greengrove,2250,600000,2016,6,,,2250
NSW,Greenhills Beach,2230,900000,2016,6,,,#N/A
NSW,Greenwich,2065,835000,2016,6,,,2065
NSW,Gregory Hills,2557,700000,2016,6,,,#N/A
NSW,Greta,2334,316000,2016,6,,,2334
NSW,Greystanes,1791,708000,2016,6,,,2145
NSW,Grose Vale,2753,635000,2016,6,,,2753
NSW,Grose Wold,2753,635000,2016,6,,,2753
NSW,Guildford,1817,708000,2016,6,,,1848
NSW,Guildford West,2161,708000,2016,6,,,2161
NSW,Gunderman,2775,600000,2016,6,,,2775
NSW,Gurnang,2787,578000,2016,6,,,2787
NSW,Gwandalan,2259,480000,2016,6,,,2259
NSW,Gwynneville,2500,595000,2016,6,,,2500
NSW,Gymea,2227,900000,2016,6,,,2227
NSW,Gymea Bay,2227,900000,2016,6,,,2227
NSW,Haberfield,2045,825000,2016,6,,,2045
NSW,Halekulani,2262,480000,2016,6,,,2262
NSW,Hamilton,2303,491000,2016,6,,,2303
NSW,Hamilton East,2303,491000,2016,6,,,2303
NSW,Hamilton North,2292,491000,2016,6,,,2292
NSW,Hamilton South,2303,491000,2016,6,,,2303
NSW,Hamlyn Terrace,2259,480000,2016,6,,,2259
NSW,Hammondville,2170,695000,2016,6,,,2170
NSW,Hardys Bay,2257,600000,2016,6,,,2257
NSW,Harpers Hill,2321,417000,2016,6,,,2321
NSW,Harrington Park,2567,700000,2016,6,,,2567
NSW,Harris Park,2150,720000,2016,6,,,2150
NSW,Hassall Grove,2761,632000,2016,6,,,2761
NSW,Haymarket,2000,930000,2016,6,,,1208
NSW,Haywards Bay,2530,595000,2016,6,,,2530
NSW,Hazelgrove,2787,578000,2016,6,,,2787
NSW,Heathcote,2233,900000,2016,6,,,2233
NSW,Heatherbrae,2324,449000,2016,6,,,2324
NSW,Hebersham,2770,632000,2016,6,,,2770
NSW,Heckenberg,2168,695000,2016,6,,,2168
NSW,Heddon Greta,2321,417000,2016,6,,,2321
NSW,Helensburgh,2508,595000,2016,6,,,2508
NSW,Henley,2111,1780000,2016,6,,,2111
NSW,Higher Macdonald,2775,635000,2016,6,,,2775
NSW,Highfields,2289,491000,2016,6,,,2289
NSW,Hillsborough,2290,491000,2016,6,,,2290
NSW,Hillsborough,2320,417000,2016,6,,,2290
NSW,Hillsdale,2036,861000,2016,6,,,2036
NSW,Hinchinbrook,2168,695000,2016,6,,,2168
NSW,Hobartville,2753,635000,2016,6,,,2753
NSW,Holgate,2250,600000,2016,6,,,2250
NSW,Holmesville,2286,491000,2016,6,,,2286
NSW,Holsworthy,2173,695000,2016,6,,,2173
NSW,Homebush,2140,715000,2016,6,,,2140
NSW,Homebush West,2140,708000,2016,6,,,2140
NSW,Horningsea Park,2171,695000,2016,6,,,2171
NSW,Hornsby,2077,1070000,2016,6,,,1630
NSW,Horseshoe Bend,2320,417000,2016,6,,,2320
NSW,Horsfield Bay,2256,600000,2016,6,,,2256
NSW,Horsley,2530,595000,2016,6,,,2530
NSW,Horsley Park,2175,700000,2016,6,,,2175
NSW,Hoxton Park,2171,695000,2016,6,,,2171
NSW,Hunters Hill,2110,1780000,2016,6,,,2110
NSW,Huntingwood,2148,632000,2016,6,,,2148
NSW,Huntley,2530,595000,2016,6,,,2530
NSW,Huntleys Cove,2111,1780000,2016,6,,,2111
NSW,Huntleys Point,2111,1780000,2016,6,,,2111
NSW,Hurlstone Park,2193,700000,2016,6,,,2193
NSW,Hurstville,2220,773000,2016,6,,,1493
NSW,Hurstville Grove,2220,880000,2016,6,,,2220
NSW,Illawong,2234,900000,2016,6,,,2234
NSW,Ingleburn,2565,545000,2016,6,,,1890
NSW,Ingleside Heights,#N/A,1391000,2016,6,,,#N/A
NSW,Islington,2296,491000,2016,6,,,2296
NSW,Jamberoo,2533,688000,2016,6,,,2533
NSW,Jamisontown,2750,589000,2016,6,,,2750
NSW,Jannali,2226,900000,2016,6,,,2226
NSW,Jaunter,2787,578000,2016,6,,,2787
NSW,Jerrara,2533,688000,2016,6,,,2533
NSW,Jesmond,2299,491000,2016,6,,,2299
NSW,Jewells,2280,491000,2016,6,,,2280
NSW,Jilliby,2259,480000,2016,6,,,2259
NSW,Jordan Springs,2747,589000,2016,6,,,#N/A
NSW,Kahibah,2290,491000,2016,6,,,2290
NSW,Kanahooka,2530,595000,2016,6,,,2530
NSW,Kanangra,2787,578000,2016,6,,,2787
NSW,Kangy Angy,2258,480000,2016,6,,,2258
NSW,Kanwal,2259,480000,2016,6,,,2259
NSW,Kareela,2232,900000,2016,6,,,2232
NSW,Kariong,2250,600000,2016,6,,,2250
NSW,Karuah,2324,449000,2016,6,,,2324
NSW,Kearns,2558,545000,2016,6,,,2558
NSW,Kearsley,2325,316000,2016,6,,,2325
NSW,Keinbah,2320,417000,2016,6,,,2320
NSW,Keiraville,2500,595000,2016,6,,,2500
NSW,Kellyville,2155,1089000,2016,6,,,2155
NSW,Kellyville Ridge,2155,632000,2016,6,,,2155
NSW,Kembla Grange,2526,595000,2016,6,,,2526
NSW,Kembla Heights,2526,595000,2016,6,,,2526
NSW,Kemblawarra,2505,595000,2016,6,,,2505
NSW,Kensington,2033,1100000,2016,6,,,1465
NSW,Kenthurst,2156,1089000,2016,6,,,2156
NSW,Kentlyn,2560,545000,2016,6,,,2560
NSW,Kiama,2533,688000,2016,6,,,2533
NSW,Kiama Downs,2533,688000,2016,6,,,2533
NSW,Kiama Heights,2533,688000,2016,6,,,2533
NSW,Kilaben Bay,2283,491000,2016,6,,,2283
NSW,Killara,2071,1600000,2016,6,,,2071
NSW,Killarney Heights,2087,1035000,2016,6,,,2087
NSW,Killarney Vale,2261,480000,2016,6,,,2261
NSW,Killcare,2257,600000,2016,6,,,2257
NSW,Killcare Heights,2257,600000,2016,6,,,2257
NSW,Kincumber,2251,600000,2016,6,,,2251
NSW,Kincumber South,2251,600000,2016,6,,,2251
NSW,Kings Langley,2147,632000,2016,6,,,2147
NSW,Kings Park,2148,632000,2016,6,,,2148
NSW,Kingsford,2032,1100000,2016,6,,,2032
NSW,Kingswood,2747,589000,2016,6,,,2340
NSW,Kirrawee,2232,900000,2016,6,,,2232
NSW,Kirribilli,2061,1050000,2016,6,,,2061
NSW,Kitchener,2325,316000,2016,6,,,2325
NSW,Knights Hill,2577,688000,2016,6,,,2577
NSW,Kogarah,2217,880000,2016,6,,,2217
NSW,Kogarah Bay,2217,880000,2016,6,,,2217
NSW,Koolewong,2256,600000,2016,6,,,2256
NSW,Koonawarra,2530,595000,2016,6,,,2530
NSW,Kooragang,2304,491000,2016,6,,,2304
NSW,Kotara,2289,491000,2016,6,,,2289
NSW,Kotara East,2305,491000,2016,6,,,2305
NSW,Kotara South,2289,491000,2016,6,,,2289
NSW,Kurmond,2757,635000,2016,6,,,2757
NSW,Kurnell,2231,900000,2016,6,,,2231
NSW,Kurraba Point,2089,1050000,2016,6,,,#N/A
NSW,Kurri Kurri,2327,316000,2016,6,,,2327
NSW,Kyeemagh,2216,760000,2016,6,,,2216
NSW,Kyle Bay,2221,880000,2016,6,,,2221
NSW,La Perouse,2036,1100000,2016,6,,,2036
NSW,Lake Haven,2263,480000,2016,6,,,2263
NSW,Lake Heights,2502,595000,2016,6,,,2502
NSW,Lake Munmorah,2259,480000,2016,6,,,2259
NSW,Lakelands,2282,491000,2016,6,,,2282
NSW,Lakemba,2195,700000,2016,6,,,2195
NSW,Lakesland,2572,680000,2016,6,,,2572
NSW,Lalor Park,2147,632000,2016,6,,,2147
NSW,Lambton,2299,491000,2016,6,,,2299
NSW,Lane Cove,2066,835000,2016,6,,,1595
NSW,Lane Cove West,2066,835000,2016,6,,,2066
NSW,Lansdowne,2163,820000,2016,6,,,2163
NSW,Lansvale,2166,700000,2016,6,,,2166
NSW,Largs,2320,417000,2016,6,,,2320
NSW,Lavender Bay,2060,1050000,2016,6,,,2060
NSW,Leichhardt,2040,1324000,2016,6,,,2040
NSW,Leightonfield,2163,820000,2016,6,,,#N/A
NSW,Lemon Tree,2259,480000,2016,6,,,2259
NSW,Lemon Tree Passage,2319,449000,2016,6,,,2319
NSW,Leonay,2750,589000,2016,6,,,2750
NSW,Lethbridge Park,2770,632000,2016,6,,,2770
NSW,Leumeah,2560,545000,2016,6,,,2560
NSW,Lewisham,2049,985000,2016,6,,,2049
NSW,Liberty Grove,2138,1006000,2016,6,,,2138
NSW,Lilli Pilli,2229,900000,2016,6,,,2229
NSW,Lilyfield,2040,1324000,2016,6,,,2040
NSW,Lilyvale,2508,595000,2016,6,,,2508
NSW,Lindfield,2070,1600000,2016,6,,,2070
NSW,Linley Point,2066,835000,2016,6,,,2066
NSW,Linns Hill,2570,680000,2016,6,,,#N/A
NSW,Lisarow,2250,600000,2016,6,,,2250
NSW,Little Bay,2036,1100000,2016,6,,,2036
NSW,Little Jilliby,2259,480000,2016,6,,,2259
NSW,Little Pelican,2281,491000,2016,6,,,2281
NSW,Little Wobby,2256,600000,2016,6,,,2256
NSW,Liverpool,2170,695000,2016,6,,,1871
NSW,Llandilo,2747,589000,2016,6,,,2747
NSW,Lochinvar,2321,417000,2016,6,,,2321
NSW,Loftus,2232,900000,2016,6,,,2232
NSW,Londonderry,2753,589000,2016,6,,,2753
NSW,Long Jetty,2261,480000,2016,6,,,2261
NSW,Long Point,2564,545000,2016,6,,,2330
NSW,Longueville,2066,835000,2016,6,,,2066
NSW,Loquat Valley,#N/A,1391000,2016,6,,,#N/A
NSW,Lorn,2320,417000,2016,6,,,2320
NSW,Louth Park,2320,417000,2016,6,,,2320
NSW,Lovett Bay,2105,1391000,2016,6,,,2105
NSW,Lower Macdonald,2775,635000,2016,6,,,2775
NSW,Lower Mangrove,2250,600000,2016,6,,,2250
NSW,Lucas Heights,2234,900000,2016,6,,,2234
NSW,Lugarno,2210,773000,2016,6,,,2210
NSW,Lurnea,2170,695000,2016,6,,,2170
NSW,Luskintyre,2321,417000,2016,6,,,2321
NSW,Macarthur Heights,#N/A,545000,2016,6,,,#N/A
NSW,MacMasters Beach,2251,600000,2016,6,,,2251
NSW,Macquarie Fields,2564,545000,2016,6,,,2564
NSW,Macquarie Hills,2285,491000,2016,6,,,2285
NSW,Macquarie Links,2565,545000,2016,6,,,2565
NSW,Macquarie Park,2113,1020000,2016,6,,,2113
NSW,Macquarie Pass,2577,525000,2016,6,,,2577
NSW,Macquarie University campus,#N/A,1020000,2016,6,,,#N/A
NSW,Maddens Plains,2508,595000,2016,6,,,2508
NSW,Magenta,2261,480000,2016,6,,,2261
NSW,Maianbar,2230,900000,2016,6,,,2230
NSW,Maitland,2320,417000,2016,6,,,2320
NSW,Maitland Bar,2850,417000,2016,6,,,2850
NSW,Maitland North,2320,417000,2016,6,,,2320
NSW,Maitland Vale,2320,417000,2016,6,,,2320
NSW,Malabar,2036,1100000,2016,6,,,2036
NSW,Mallabula,2319,449000,2016,6,,,2319
NSW,Manahan,2200,820000,2016,6,,,2200
NSW,Mangerton,2500,595000,2016,6,,,2500
NSW,Mangrove Creek,2250,600000,2016,6,,,2250
NSW,Mangrove Mountain,2250,600000,2016,6,,,2250
NSW,Manly,2095,1673000,2016,6,,,1655
NSW,Manly Vale,2093,1035000,2016,6,,,2093
NSW,Mannering Park,2259,480000,2016,6,,,2259
NSW,Marayong,2148,632000,2016,6,,,2148
NSW,Mardi,2259,480000,2016,6,,,2259
NSW,Marks Point,2280,491000,2016,6,,,2280
NSW,Marlow,2775,600000,2016,6,,,2775
NSW,Marmong Point,2284,491000,2016,6,,,2284
NSW,Maroota,2756,1089000,2016,6,,,2756
NSW,Maroubra,2035,1100000,2016,6,,,2035
NSW,Maroubra Junction,#N/A,1100000,2016,6,,,#N/A
NSW,Marrickville,2204,985000,2016,6,,,1475
NSW,Marsden Park,2765,632000,2016,6,,,2765
NSW,Marsfield,2122,1020000,2016,6,,,2122
NSW,Marshall Mount,2530,595000,2016,6,,,2530
NSW,Maryland,2287,491000,2016,6,,,2287
NSW,Maryville,2293,491000,2016,6,,,2293
NSW,Mascot,2020,861000,2016,6,,,1460
NSW,Matcham,2250,600000,2016,6,,,2250
NSW,Matraville,2036,1100000,2016,6,,,2036
NSW,Mayfield,2304,491000,2016,6,,,2304
NSW,Mayfield,2787,578000,2016,6,,,2304
NSW,Mayfield East,2304,491000,2016,6,,,2304
NSW,Mayfield North,2304,491000,2016,6,,,2304
NSW,Mayfield West,2304,491000,2016,6,,,2304
NSW,McCarrs Creek,2105,1391000,2016,6,,,#N/A
NSW,Mcgraths Hill,2756,635000,2016,6,,,2756
NSW,McMahons Point,2060,1050000,2016,6,,,2060
NSW,Meadowbank,2114,1020000,2016,6,,,2114
NSW,Medowie,2318,449000,2016,6,,,2318
NSW,Megalong,2785,578000,2016,6,,,2785
NSW,Mellong,2756,635000,2016,6,,,2756
NSW,Melrose Park,2114,1020000,2016,6,,,2114
NSW,Melville,2320,417000,2016,6,,,2320
NSW,Menai,2234,900000,2016,6,,,2234
NSW,Menangle,2568,680000,2016,6,,,2568
NSW,Menangle Park,2563,545000,2016,6,,,2563
NSW,Merewether,2291,491000,2016,6,,,2291
NSW,Merewether Heights,2291,491000,2016,6,,,2291
NSW,Merrylands,1855,708000,2016,6,,,2160
NSW,Merrylands,2160,720000,2016,6,,,2160
NSW,Merrylands West,2160,708000,2016,6,,,2160
NSW,Metford,2323,417000,2016,6,,,2323
NSW,Middle Camp,2281,491000,2016,6,,,2281
NSW,Middle Cove,2068,1486000,2016,6,,,2068
NSW,Middle Dural,2158,1089000,2016,6,,,2158
NSW,Middleton Grange,2171,695000,2016,6,,,2171
NSW,Miller,2168,695000,2016,6,,,#N/A
NSW,Millers Point,2000,930000,2016,6,,,2000
NSW,Millfield,2325,316000,2016,6,,,2325
NSW,Milperra,2214,820000,2016,6,,,1891
NSW,Milsons Point,2061,1050000,2016,6,,,1565
NSW,Minchinbury,2770,632000,2016,6,,,2770
NSW,Mindaribba,2320,417000,2016,6,,,2320
NSW,Minmi,2287,491000,2016,6,,,2287
NSW,Minnamurra,2533,688000,2016,6,,,2533
NSW,Minto,2566,545000,2016,6,,,2566
NSW,Minto Heights,2566,545000,2016,6,,,2566
NSW,Miranda,2228,900000,2016,6,,,1490
NSW,Mogo Creek,2775,635000,2016,6,,,2775
NSW,Mona Vale,2103,1391000,2016,6,,,1658
NSW,Monterey,2217,760000,2016,6,,,2217
NSW,Mooney Mooney,2083,600000,2016,6,,,2083
NSW,Mooney Mooney Creek,2250,600000,2016,6,,,2250
NSW,Moore Park,2021,930000,2016,6,,,2021
NSW,Moorebank,2170,695000,2016,6,,,1875
NSW,Morisset,2264,471000,2016,6,,,2264
NSW,Morning Bay,2108,1391000,2016,6,,,2108
NSW,Morpeth,2321,417000,2016,6,,,2321
NSW,Mortdale,2223,773000,2016,6,,,2223
NSW,Mortlake,2137,1006000,2016,6,,,2137
NSW,Mosman,2088,1490000,2016,6,,,2088
NSW,Mount Annan,2567,700000,2016,6,,,2567
NSW,Mount Dee,2320,417000,2016,6,,,2320
NSW,Mount Druitt,2770,632000,2016,6,,,2770
NSW,Mount Elliot,2250,600000,2016,6,,,2250
NSW,Mount Irvine,2786,578000,2016,6,,,2786
NSW,Mount Keira,2500,595000,2016,6,,,2500
NSW,Mount Kembla,2526,595000,2016,6,,,2526
NSW,Mount Lewis,2190,820000,2016,6,,,2190
NSW,Mount Olive,2787,578000,2016,6,,,2330
NSW,Mount Ousley,2519,595000,2016,6,,,2519
NSW,Mount Pleasant,2519,595000,2016,6,,,2519
NSW,Mount Saint Thomas,2500,595000,2016,6,,,2500
NSW,Mount Tomah,2758,578000,2016,6,,,2758
NSW,Mount Vernon,2178,589000,2016,6,,,2178
NSW,Mount Victoria,2786,578000,2016,6,,,2786
NSW,Mount Vincent,2323,417000,2016,6,,,2323
NSW,Mount Werong,2787,578000,2016,6,,,2787
NSW,Mount White,2250,600000,2016,6,,,2250
NSW,Mount Wilson,2786,578000,2016,6,,,2786
NSW,Mozart,2787,578000,2016,6,,,2787
NSW,Mulgoa,2745,589000,2016,6,,,2745
NSW,Mulgrav,2756,635000,2016,6,,,#N/A
NSW,Murrays Beach,2281,491000,2016,6,,,2281
NSW,Narara,2250,600000,2016,6,,,2250
NSW,Narellan,2567,700000,2016,6,,,2567
NSW,Narellan Vale,2567,700000,2016,6,,,2567
NSW,Naremburn,2065,1486000,2016,6,,,2065
NSW,Narraweena,2099,1035000,2016,6,,,2099
NSW,Nattai River,2570,680000,2016,6,,,#N/A
NSW,Neath,2326,316000,2016,6,,,2326
NSW,Nelson,2765,1089000,2016,6,,,2550
NSW,Nelson Bay,2315,449000,2016,6,,,2315
NSW,Nelsons Plains,2324,449000,2016,6,,,2324
NSW,Neutral Bay,2089,1050000,2016,6,,,2089
NSW,New Lambton,2305,491000,2016,6,,,2305
NSW,New Lambton Heights,2305,491000,2016,6,,,2305
NSW,Newcastle,2300,491000,2016,6,,,2300
NSW,Newcastle East,2300,491000,2016,6,,,2300
NSW,Newcastle University,2308,491000,2016,6,,,2308
NSW,Newcastle West,2302,491000,2016,6,,,2302
NSW,Newington,2127,720000,2016,6,,,2127
NSW,Newport,2106,1391000,2016,6,,,2106
NSW,Niagara Park,2250,600000,2016,6,,,2250
NSW,Norah Head,2263,480000,2016,6,,,2263
NSW,Noraville,2263,480000,2016,6,,,2263
NSW,Nords Wharf,2281,491000,2016,6,,,2281
NSW,North Avoca,2260,600000,2016,6,,,2260
NSW,North Balgowlah,2093,1035000,2016,6,,,2093
NSW,North Curl Curl,2099,1035000,2016,6,,,2099
NSW,North Gosford,2250,600000,2016,6,,,2250
NSW,North Kellyville,2155,1089000,2016,6,,,#N/A
NSW,North Lambton,2299,491000,2016,6,,,2299
NSW,North Manly,2100,1035000,2016,6,,,2100
NSW,North Narrabeen,2101,1391000,2016,6,,,2101
NSW,North Parramatta,2151,720000,2016,6,,,1750
NSW,North Richmond,2754,635000,2016,6,,,2754
NSW,North Ryde,2113,1020000,2016,6,,,2113
NSW,North St Ives,#N/A,1600000,2016,6,,,#N/A
NSW,North St Marys,2760,589000,2016,6,,,2760
NSW,North Strathfield,2137,1006000,2016,6,,,2137
NSW,North Sydney,2060,1050000,2016,6,,,2055
NSW,North Turramurra,2074,1600000,2016,6,,,2074
NSW,North Wahroonga,2076,1600000,2016,6,,,2076
NSW,North Willoughby,2068,1486000,2016,6,,,2068
NSW,North Wollongong,2500,595000,2016,6,,,2500
NSW,Northbridge,2063,1486000,2016,6,,,2063
NSW,Northmead,2152,720000,2016,6,,,2152
NSW,Northwood,2066,835000,2016,6,,,2066
NSW,Norway,2787,578000,2016,6,,,2787
NSW,Oakhampton,2320,417000,2016,6,,,2320
NSW,Oakhampton Heights,2320,417000,2016,6,,,2320
NSW,Oakhurst,2761,632000,2016,6,,,2761
NSW,Oakville,2765,635000,2016,6,,,2765
NSW,Oatlands,2117,720000,2016,6,,,2117
NSW,Oberon,2787,578000,2016,6,,,2787
NSW,Old Guildford,2161,700000,2016,6,,,2161
NSW,Old Toongabbie,2146,720000,2016,6,,,2146
NSW,One Mile,2316,449000,2016,6,,,2316
NSW,One Tree Point,2211,820000,2016,6,,,#N/A
NSW,Orchard Hills,2748,589000,2016,6,,,2748
NSW,Osterley,2324,449000,2016,6,,,2324
NSW,Oswald,2321,417000,2016,6,,,2321
NSW,Otford,2508,595000,2016,6,,,2508
NSW,Ourimbah,2258,480000,2016,6,,,2258
NSW,Oxford Falls,2100,1035000,2016,6,,,2100
NSW,Oxley Park,2760,589000,2016,6,,,2760
NSW,Oyster Bay,2225,900000,2016,6,,,2225
NSW,Padstow Heights,2211,820000,2016,6,,,2211
NSW,Padstow,2211,820000,2016,6,,,2211
NSW,Pagewood,2035,861000,2016,6,,,2035
NSW,Palm Beach,2108,1391000,2016,6,,,2108
NSW,Palm Grove,2258,480000,2016,6,,,2258
NSW,Palmdale,2258,480000,2016,6,,,2258
NSW,Panania,2213,820000,2016,6,,,2213
NSW,Paradise Beach,2107,1391000,2016,6,,,2107
NSW,Parklea,2768,632000,2016,6,,,2768
NSW,Parramatta,2150,720000,2016,6,,,1740
NSW,Patonga,2256,600000,2016,6,,,2256
NSW,Paxton,2325,316000,2016,6,,,2325
NSW,Peakhurst,2210,773000,2016,6,,,2210
NSW,Peakhurst Heights,2210,773000,2016,6,,,2210
NSW,Pearl Beach,2256,600000,2016,6,,,2256
NSW,Peats Ridge,2250,600000,2016,6,,,2250
NSW,Pelaw Main,2327,316000,2016,6,,,2327
NSW,Pelican,2281,491000,2016,6,,,2281
NSW,Pemulwuy,2145,708000,2016,6,,,2145
NSW,Penrith,2750,589000,2016,6,,,2750
NSW,Penrose,2530,595000,2016,6,,,2530
NSW,Penshurst,2222,773000,2016,6,,,2222
NSW,Perrys Crossing,2775,635000,2016,6,,,2775
NSW,Petersham,2049,985000,2016,6,,,2049
NSW,Pheasants Nest,2574,680000,2016,6,,,2574
NSW,Phegans Bay,2256,600000,2016,6,,,2256
NSW,Phillip Bay,2036,1100000,2016,6,,,2036
NSW,Phoenix Park,2321,417000,2016,6,,,2321
NSW,Picketts Valley,2251,600000,2016,6,,,2251
NSW,Picnic Point,2213,820000,2016,6,,,2213
NSW,Pinny Beach,2281,491000,2016,6,,,2281
NSW,Pitnacree,2323,417000,2016,6,,,2323
NSW,Pitt Town,2756,635000,2016,6,,,2756
NSW,Pitt Town Bottoms,2756,635000,2016,6,,,2756
NSW,Pleasure Point,2172,695000,2016,6,,,2172
NSW,Plumpton,2761,632000,2016,6,,,2761
NSW,Point Clare,2250,600000,2016,6,,,2250
NSW,Point Frederick,2250,600000,2016,6,,,2250
NSW,Point Piper,2027,1709000,2016,6,,,2027
NSW,Pokolbin,2320,417000,2016,6,,,2320
NSW,Port Botany,2036,1100000,2016,6,,,2036
NSW,Port Hacking,2229,900000,2016,6,,,2229
NSW,Port Kembla,2505,595000,2016,6,,,2505
NSW,Port Stephens,#N/A,449000,2016,6,,,#N/A
NSW,Porters Retreat,2787,578000,2016,6,,,2787
NSW,Portland,2847,578000,2016,6,,,2847
NSW,Potts Hill,2143,820000,2016,6,,,2143
NSW,Potts Point,2011,930000,2016,6,,,1335
NSW,Prairiewood,2176,700000,2016,6,,,2176
NSW,Prestons,2170,695000,2016,6,,,2170
NSW,Pretty Beach,2257,600000,2016,6,,,2257
NSW,Primbee,2502,595000,2016,6,,,2502
NSW,Punchbowl,2196,820000,2016,6,,,2196
NSW,Putney,2112,1020000,2016,6,,,2112
NSW,Putty,2330,635000,2016,6,,,2330
NSW,Pymble,2073,1600000,2016,6,,,2073
NSW,Pyrmont,2009,930000,2016,6,,,2009
NSW,Quakers Hill,2763,632000,2016,6,,,2763
NSW,Queens Park,2022,1200000,2016,6,,,2022
NSW,Queenscliff,2096,1035000,2016,6,,,2096
NSW,Raby,2566,545000,2016,6,,,2566
NSW,Ramsgate,2217,760000,2016,6,,,2217
NSW,Ramsgate Beach,2217,760000,2016,6,,,2217
NSW,Randwick,2031,1100000,2016,6,,,2031
NSW,Rankin Park,2287,491000,2016,6,,,2287
NSW,Rathmines,2283,491000,2016,6,,,2283
NSW,Ravensdale,2259,480000,2016,6,,,2259
NSW,Raworth,2321,417000,2016,6,,,2321
NSW,Raymond Terrace,2324,449000,2016,6,,,2324
NSW,Redfern,2016,930000,2016,6,,,2016
NSW,Regentville,2745,589000,2016,6,,,2745
NSW,Reidtown,2519,595000,2016,6,,,2519
NSW,Revesby,2212,820000,2016,6,,,2212
NSW,Revesby Heights,2212,820000,2016,6,,,2212
NSW,Rhodes,2138,1006000,2016,6,,,2138
NSW,Richmond,2753,635000,2016,6,,,2753
NSW,Richmond Lowlands,2753,635000,2016,6,,,2753
NSW,Richmond Vale,2323,417000,2016,6,,,2323
NSW,Riverview,2066,835000,2016,6,,,2066
NSW,Rockdale,2216,760000,2016,6,,,2216
NSW,Rocky Point,2259,480000,2016,6,,,2259
NSW,Rodd Point,2046,1006000,2016,6,,,2046
NSW,Rookwood,2141,708000,2016,6,,,2141
NSW,Rooty Hill,2766,632000,2016,6,,,2766
NSW,Ropes Crossing,2760,632000,2016,6,,,2760
NSW,Rose Valley,2534,688000,2016,6,,,2534
NSW,Rosebrook,2320,417000,2016,6,,,2320
NSW,Rosehill,2142,720000,2016,6,,,2142
NSW,Roselands,2196,700000,2016,6,,,2196
NSW,Rosemeadow,2560,545000,2016,6,,,2560
NSW,Roseville Chase,2069,1600000,2016,6,,,2069
NSW,Rossmore,2557,695000,2016,6,,,2557
NSW,Rothbury,2320,417000,2016,6,,,2320
NSW,Rozelle,2039,1324000,2016,6,,,2039
NSW,Ruse,2560,545000,2016,6,,,2560
NSW,Rushcutters Bay,2011,930000,2016,6,,,2011
NSW,Russell Lea,2046,1006000,2016,6,,,2046
NSW,Russell Vale,2517,595000,2016,6,,,2517
NSW,Rutherford,2320,417000,2016,6,,,2320
NSW,Rydalmere,2116,720000,2016,6,,,2116
NSW,Ryde,2112,1020000,2016,6,,,1680
NSW,Ryhope,2283,491000,2016,6,,,2283
NSW,Sackville,2756,635000,2016,6,,,2756
NSW,Sackville North,2756,1089000,2016,6,,,2756
NSW,Saddleback Mountain,2533,688000,2016,6,,,2533
NSW,Sadleir,2168,695000,2016,6,,,2168
NSW,Salamander Bay,2317,449000,2016,6,,,2317
NSW,Salt Ash,2318,449000,2016,6,,,2318
NSW,Salt Pan Cove,#N/A,1391000,2016,6,,,#N/A
NSW,San Remo,2262,480000,2016,6,,,2262
NSW,Sand Point,#N/A,1391000,2016,6,,,#N/A
NSW,Sandgate,2304,491000,2016,6,,,2304
NSW,Sandringham,2219,760000,2016,6,,,2219
NSW,Sandy Point,2172,900000,2016,6,,,2172
NSW,Sans Souci,2219,880000,2016,6,,,2219
NSW,Saratoga,2251,600000,2016,6,,,2251
NSW,Scarborough,2515,595000,2016,6,,,2515
NSW,Scheyville,2756,635000,2016,6,,,2756
NSW,Schofields,2762,632000,2016,6,,,2762
NSW,Scotland Island,2105,1391000,2016,6,,,2105
NSW,Scotts Hill,2570,680000,2016,6,,,#N/A
NSW,Seaforth,2092,1673000,2016,6,,,2092
NSW,Seaham,2324,449000,2016,6,,,2324
NSW,Seahampton,2286,491000,2016,6,,,2286
NSW,Sefton,2162,820000,2016,6,,,2162
NSW,Seven Hills,2147,632000,2016,6,,,1730
NSW,Shalvey,2770,632000,2016,6,,,2770
NSW,Shanes Park,2747,632000,2016,6,,,2747
NSW,Shelly Beach,2261,480000,2016,6,,,2261
NSW,Shoal Bay,2315,491000,2016,6,,,2315
NSW,Shooters Hill,2787,578000,2016,6,,,2787
NSW,Shortland,2307,491000,2016,6,,,2307
NSW,Silverdale,2752,680000,2016,6,,,2752
NSW,Silverwater,2128,720000,2016,6,,,1811
NSW,Smeaton Grange,2567,700000,2016,6,,,2567
NSW,Soldiers Point,2317,449000,2016,6,,,2317
NSW,Somersby,2250,600000,2016,6,,,2250
NSW,South Coogee,2034,1100000,2016,6,,,2034
NSW,South Granville,2142,708000,2016,6,,,2142
NSW,South Hurstville,2221,880000,2016,6,,,2221
NSW,South Maitland,2320,417000,2016,6,,,2320
NSW,South Maroota,2756,1089000,2016,6,,,2756
NSW,South Penrith,2750,589000,2016,6,,,2750
NSW,South Turramurra,2074,1600000,2016,6,,,2074
NSW,South Warriewood,#N/A,1391000,2016,6,,,#N/A
NSW,South Wentworthville,2145,708000,2016,6,,,2145
NSW,South Windsor,2756,635000,2016,6,,,2756
NSW,Speers Point,2284,491000,2016,6,,,2284
NSW,Spencer,2775,600000,2016,6,,,2775
NSW,Spring Hill,2500,595000,2016,6,,,2500
NSW,Springfield,2250,600000,2016,6,,,2250
NSW,St Albans,2775,635000,2016,6,,,2775
NSW,St Andrews,2566,545000,2016,6,,,#N/A
NSW,St Clair,2759,589000,2016,6,,,2330
NSW,St Helens Park,2560,545000,2016,6,,,2560
NSW,St Huberts Island,2257,600000,2016,6,,,2257
NSW,St Ives,2075,1600000,2016,6,,,2075
NSW,St Ives Chase,2075,1600000,2016,6,,,2075
NSW,St Johns Park,2176,700000,2016,6,,,2176
NSW,St Peters,2044,985000,2016,6,,,2044
NSW,Stanhope Gardens,2768,632000,2016,6,,,2768
NSW,Stanmore,2048,985000,2016,6,,,2048
NSW,Stanwell Park,2508,595000,2016,6,,,2508
NSW,Stanwell Tops,2508,595000,2016,6,,,2508
NSW,Stockton,2295,491000,2016,6,,,2295
NSW,Stokes Point,#N/A,1391000,2016,6,,,#N/A
NSW,Strathfield,2135,715000,2016,6,,,1816
NSW,Strathfield South,2135,715000,2016,6,,,2136
NSW,Summer Hill,2287,491000,2016,6,,,2130
NSW,Summer Hill,2130,825000,2016,6,,,2130
NSW,Summerland Point,2259,480000,2016,6,,,2259
NSW,Surry Hills,2010,930000,2016,6,,,2010
NSW,Sutherland,2232,900000,2016,6,,,1499
NSW,Swan Bay,2324,449000,2016,6,,,2324
NSW,Swansea Heads,2281,491000,2016,6,,,2281
NSW,Sydenham,2044,985000,2016,6,,,2044
NSW,Sydney,2000,930000,2016,6,,,1001
NSW,Sydney Airport,2020,760000,2016,6,,,#N/A
NSW,Sylvania,2224,900000,2016,6,,,2224
NSW,Sylvania Waters,2224,900000,2016,6,,,2224
NSW,Tacoma,2259,480000,2016,6,,,2259
NSW,Tacoma South,2259,480000,2016,6,,,2259
NSW,Tahmoor,2573,680000,2016,6,,,2573
NSW,Tamarama,2026,1200000,2016,6,,,2026
NSW,Tanilba Bay,2319,449000,2016,6,,,2319
NSW,Tarana,2787,578000,2016,6,,,2787
NSW,Taren Point,2229,900000,2016,6,,,2229
NSW,Tarrawanna,2518,595000,2016,6,,,2518
NSW,Tascott,2250,600000,2016,6,,,2250
NSW,Taylors Beach,2316,449000,2016,6,,,2316
NSW,Taylors Point,2107,1391000,2016,6,,,2107
NSW,Telarah,2320,417000,2016,6,,,2320
NSW,Telopea,2117,720000,2016,6,,,2117
NSW,Tempe,2044,985000,2016,6,,,2044
NSW,Ten Mile Hollow,2250,635000,2016,6,,,2250
NSW,Tenambit,2323,417000,2016,6,,,2323
NSW,Tennyson,2754,635000,2016,6,,,2754
NSW,Tennyson Point,2111,1020000,2016,6,,,2111
NSW,Teralba,2284,491000,2016,6,,,2284
NSW,Terrey Hills,2084,1035000,2016,6,,,2084
NSW,Terrigal,2260,600000,2016,6,,,2260
NSW,The Basin,2108,1391000,2016,6,,,2108
NSW,The Entrance,2261,480000,2016,6,,,2261
NSW,The Entrance North,2261,480000,2016,6,,,2261
NSW,The Hill,2300,491000,2016,6,,,2300
NSW,The Junction,2291,491000,2016,6,,,2291
NSW,The Meadows,2787,578000,2016,6,,,2787
NSW,The Peaks,2787,680000,2016,6,,,#N/A
NSW,The Ponds,2769,632000,2016,6,,,2769
NSW,The Rocks,2000,930000,2016,6,,,2000
NSW,The Slopes,2754,635000,2016,6,,,2754
NSW,Thirlmere,2572,680000,2016,6,,,2572
NSW,Thirroul,2515,595000,2016,6,,,2515
NSW,Tighes Hill,2297,491000,2016,6,,,2297
NSW,Tilligerry Creek,2319,449000,2016,6,,,#N/A
NSW,Tingira Heights,2290,491000,2016,6,,,2290
NSW,Tomago,2322,449000,2016,6,,,2322
NSW,Toolijooa,2534,688000,2016,6,,,2534
NSW,Toowoon Bay,2261,480000,2016,6,,,2261
NSW,Top Ryde,2112,1020000,2016,6,,,#N/A
NSW,Toukley,2263,480000,2016,6,,,2263
NSW,Towlers Bay,#N/A,1391000,2016,6,,,#N/A
NSW,Towradgi,2518,595000,2016,6,,,2518
NSW,Tregear,2770,632000,2016,6,,,2770
NSW,Tuggerah,2259,480000,2016,6,,,2259
NSW,Tuggerawong,2259,480000,2016,6,,,2259
NSW,Tumbi Umbi,2261,480000,2016,6,,,2261
NSW,Tumbledown Dick,#N/A,1391000,2016,6,,,#N/A
NSW,Turimetta,#N/A,1391000,2016,6,,,#N/A
NSW,Turramurra,2074,1600000,2016,6,,,2074
NSW,Turrella,2205,760000,2016,6,,,2205
NSW,Ultimo,2007,930000,2016,6,,,2007
NSW,Umina,2257,600000,2016,6,,,#N/A
NSW,Unanderra,2526,595000,2016,6,,,2526
NSW,University Of Wollongong,2522,595000,2016,6,,,2522
NSW,Upper Colo,2756,635000,2016,6,,,2756
NSW,Upper Kangaroo Valley,2577,688000,2016,6,,,2577
NSW,Upper Macdonald,2775,635000,2016,6,,,2775
NSW,Upper Mangrove,2250,600000,2016,6,,,2250
NSW,Valentine,2280,491000,2016,6,,,2280
NSW,Varroville,2566,545000,2016,6,,,2566
NSW,Voyager Point,2172,695000,2016,6,,,2172
NSW,Wadalba,2259,480000,2016,6,,,2259
NSW,Wagstaffe,2257,600000,2016,6,,,2257
NSW,Wahroonga,2076,1600000,2016,6,,,2076
NSW,Wakeley,2176,700000,2016,6,,,2176
NSW,Wallacia Heights,2745,680000,2016,6,,,#N/A
NSW,Wallarah,2259,480000,2016,6,,,2259
NSW,Wallerawang,2845,578000,2016,6,,,2845
NSW,Wallsend,2287,491000,2016,6,,,2287
NSW,Wallsend South,2287,491000,2016,6,,,2287
NSW,Wamberal,2260,600000,2016,6,,,2260
NSW,Warabrook,2304,491000,2016,6,,,2304
NSW,Waratah,2298,491000,2016,6,,,2298
NSW,Waratah West,2298,491000,2016,6,,,2298
NSW,Wareemba,2046,1006000,2016,6,,,2046
NSW,Warnervale,2259,480000,2016,6,,,2259
NSW,Warragamba,2752,680000,2016,6,,,2752
NSW,Warrawee,2074,1600000,2016,6,,,2074
NSW,Warrawong,2502,595000,2016,6,,,2502
NSW,Warriewood,2102,1391000,2016,6,,,2102
NSW,Warriewood Beach,#N/A,1391000,2016,6,,,#N/A
NSW,Warwick Farm,2170,695000,2016,6,,,2170
NSW,Watanobbi,2259,480000,2016,6,,,2259
NSW,Waterfall,2233,900000,2016,6,,,2233
NSW,Waterloo,2017,930000,2016,6,,,1440
NSW,Watsons Bay,2030,1709000,2016,6,,,2030
NSW,Wattle Grove,2173,695000,2016,6,,,2173
NSW,Waverley,2024,1200000,2016,6,,,2024
NSW,Waverton,2060,1050000,2016,6,,,2060
NSW,Webbs Creek,2775,635000,2016,6,,,2775
NSW,Wedderburn,2560,545000,2016,6,,,2560
NSW,Wendoree Park,2250,600000,2016,6,,,2250
NSW,Wentworth Point,2127,720000,2016,6,,,#N/A
NSW,Werombi Road,2570,680000,2016,6,,,#N/A
NSW,Werri Beach,2534,688000,2016,6,,,2534
NSW,Werrington,2747,589000,2016,6,,,2747
NSW,Werrington County,2747,589000,2016,6,,,2747
NSW,Werrington Downs,2747,589000,2016,6,,,2747
NSW,West Gosford,2250,600000,2016,6,,,2250
NSW,West Hoxton,2171,695000,2016,6,,,2171
NSW,West Killara,#N/A,1600000,2016,6,,,#N/A
NSW,West Lindfield,2070,1600000,2016,6,,,#N/A
NSW,West Pennant Hills,2125,1089000,2016,6,,,2125
NSW,West Pymble,2073,1600000,2016,6,,,2073
NSW,West Ryde,2114,1020000,2016,6,,,1685
NSW,West Wallsend,2286,491000,2016,6,,,2286
NSW,West Wollongong,2500,595000,2016,6,,,2500
NSW,Weston,2326,316000,2016,6,,,2326
NSW,Wetherill Park,2164,700000,2016,6,,,2164
NSW,Whalan,2770,632000,2016,6,,,2770
NSW,Whale Beach,2107,1391000,2016,6,,,2107
NSW,Wheeler Heights,2097,1035000,2016,6,,,2097
NSW,Wheeny Creek,2758,578000,2016,6,,,2758
NSW,Wheeny Creek,2765,635000,2016,6,,,2758
NSW,Whitebridge,2290,491000,2016,6,,,2290
NSW,Wickham,2293,491000,2016,6,,,2293
NSW,Wilberforce,2756,635000,2016,6,,,2756
NSW,Wiley Park,2195,700000,2016,6,,,2195
NSW,Williamtown,2318,449000,2016,6,,,2318
NSW,Willmot,2770,632000,2016,6,,,2770
NSW,Willoughby,2068,1486000,2016,6,,,2068
NSW,Willow Vale,2534,688000,2016,6,,,2534
NSW,Windale,2306,491000,2016,6,,,2306
NSW,Windang,2528,595000,2016,6,,,2528
NSW,Windella,2320,417000,2016,6,,,2320
NSW,Windsor,2756,635000,2016,6,,,2756
NSW,Windsor Downs,2756,635000,2016,6,,,2756
NSW,Wolli Creek,2205,760000,2016,6,,,2205
NSW,Wollombi,2325,316000,2016,6,,,2325
NSW,Wollongong,2500,595000,2016,6,,,2500
NSW,Wollongong,2520,595000,2016,6,,,2500
NSW,Wollongong West,2500,595000,2016,6,,,2500
NSW,Wollstonecraft,2065,1050000,2016,6,,,2065
NSW,Wombarra,2515,595000,2016,6,,,2515
NSW,Womerah,2756,635000,2016,6,,,2756
NSW,Wondabyne,2256,600000,2016,6,,,2256
NSW,Wongawilli,2530,595000,2016,6,,,2530
NSW,Woodbine,2560,545000,2016,6,,,2560
NSW,Woodcroft,2767,632000,2016,6,,,2767
NSW,Woodpark,2164,708000,2016,6,,,2164
NSW,Woodrising,2284,491000,2016,6,,,2284
NSW,Woollahra,2025,1709000,2016,6,,,2025
NSW,Woolloomooloo,2011,930000,2016,6,,,2011
NSW,Woolooware,2230,900000,2016,6,,,2230
NSW,Woolwich,2110,1780000,2016,6,,,2110
NSW,Woongarrah,2259,480000,2016,6,,,2259
NSW,Woonona,2517,595000,2016,6,,,2517
NSW,Woonona East,2517,595000,2016,6,,,2517
NSW,Woronora,2232,900000,2016,6,,,2232
NSW,Woronora Dam,2508,595000,2016,6,,,2508
NSW,Woronora Heights,2233,900000,2016,6,,,2233
NSW,Woy Woy,2256,600000,2016,6,,,2256
NSW,Woy Woy Bay,2256,600000,2016,6,,,2256
NSW,Wrights Creek,2775,635000,2016,6,,,2775
NSW,Wyoming,2250,600000,2016,6,,,2250
NSW,Wyong,2259,480000,2016,6,,,2259
NSW,Wyong Creek,2259,480000,2016,6,,,2259
NSW,Wyongah,2259,480000,2016,6,,,2259
NSW,Yagoona,1927,820000,2016,6,,,2199
NSW,Yagoona,2199,700000,2016,6,,,2199
NSW,Yanderra,2574,680000,2016,6,,,2574
NSW,Yarramalong,2259,480000,2016,6,,,2259
NSW,Yarramundi,2753,635000,2016,6,,,2753
NSW,Yarrawarrah,2233,900000,2016,6,,,2233
NSW,Yattalunga,2251,600000,2016,6,,,2251
NSW,Yerranderie,2787,680000,2016,6,,,#N/A
NSW,Yowie Bay,2228,900000,2016,6,,,2228
NSW,Zetland,2017,930000,2016,6,,,2017
